0 SL-12 R/B(2)
1 17065U 86082F   13281.87306078 -.00000104  00000-0  10000-3 0  6118
2 17065 015.5274 007.3450 0029777 055.7810 304.5101 00.97598391 70587
0 SL-12 R/B(2)
1 17065U 86082F   13284.94674591 -.00000172  00000-0  10000-3 0  6123
2 17065 015.5294 007.3154 0029467 055.3176 304.9646 00.97599493 70613
0 SL-12 R/B(2)
1 17065U 86082F   13286.99584843 -.00000189  00000-0  10000-3 0  6139
2 17065 015.5302 007.2950 0029623 055.5431 304.7316 00.97599641 70635
0 SL-12 R/B(2)
1 17065U 86082F   13289.04495920 -.00000176  00000-0  10000-3 0  6142
2 17065 015.5313 007.2740 0029690 056.0367 304.2345 00.97599294 70655
0 SL-12 R/B(2)
1 17065U 86082F   13292.11865354 -.00000123  00000-0  10000-3 0  6159
2 17065 015.5332 007.2429 0029437 056.3011 303.9630 00.97598249 70683
0 SL-12 R/B(2)
1 17065U 86082F   13294.16782262 -.00000086  00000-0  10000-3 0  6161
2 17065 015.5344 007.2222 0029360 056.3649 303.9028 00.97597625 70700
